0 SL-16 DEB
1 27749U 92093JL  13282.57373038  .00001417  00000-0  77567-3 0  3413
2 27749 071.1150 230.9282 0114337 108.1609 013.0856 14.10293966637905
0 SL-16 DEB
1 27749U 92093JL  13284.19360190  .00001623  00000-0  88430-3 0  3429
2 27749 071.1151 227.5717 0114458 105.6323 317.3244 14.10299993638133
0 SL-16 DEB
1 27749U 92093JL  13285.55252581  .00001407  00000-0  76959-3 0  3438
2 27749 071.1152 224.7557 0114581 103.5039 016.7448 14.10304082638326
0 SL-16 DEB
1 27749U 92093JL  13287.53835943  .00001540  00000-0  84007-3 0  3449
2 27749 071.1152 220.6410 0114781 100.4114 019.0837 14.10311318638600
0 SL-16 DEB
1 27749U 92093JL  13289.15848731  .00001818  00000-0  98700-3 0  3452
2 27749 071.1150 217.2841 0114931 097.8971 324.7206 14.10320474638839
0 SL-16 DEB
1 27749U 92093JL  13290.51784844  .00001756  00000-0  95378-3 0  3468
2 27749 071.1148 214.4674 0115051 095.7801 026.4454 14.10325431639023
0 SL-16 DEB
1 27749U 92093JL  13292.22575563  .00001797  00000-0  97555-3 0  3479
2 27749 071.1145 210.9285 0115223 093.1243 057.8384 14.10330618639261
0 SL-16 DEB
1 27749U 92093JL  13294.12364704  .00002291  00000-0  12364-2 0  3488
2 27749 071.1148 206.9976 0115216 090.2307 333.8113 14.10336390639537
0 SL-16 DEB
1 27749U 92093JL  13295.82687479  .00002163  00000-0  11687-2 0  3499
2 27749 071.1143 203.4682 0115386 087.6010 341.5072 14.10343503639777
